NORAD_CAT_ID,OBJECT_NAME,OBJECT_TYPE,EPOCH,MEAN_MOTION,ECCENTRICITY,INCLINATION,RA_OF_ASC_NODE,ARG_OF_PERICENTER,MEAN_ANOMALY,BSTAR,MEAN_MOTION_DOT,MEAN_MOTION_DDOT,TLE_LINE0,TLE_LINE1,TLE_LINE2,SEMIMAJOR_AXIS,PERIOD,APOGEE,PERIGEE,DECAYED
53151.0,STARLINK-4040,PAYLOAD,2024-02-18 08:48:24,15.08829704,0.0001167,53.2161,292.4501,90.3583,269.7543,-5.6165e-06,-3.77e-06,0.0,0 STARLINK-4040,1 53151U 22083V   24049.36694812 -.00000377  00000-0 -56165-5 0  9995,2 53151  53.2161 292.4501 0001167  90.3583 269.7543 15.08829704 88085,6917.912,95.438,540.584,538.97,0.0
53151.0,STARLINK-4040,PAYLOAD,2024-02-18 23:06:52,15.08836229,0.0001295,53.2177,289.7739,85.5693,274.5447,-7.034e-06,-4e-06,0.0,0 STARLINK-4040,1 53151U 22083V   24049.96310793 -.00000400  00000-0 -70340-5 0  9992,2 53151  53.2177 289.7739 0001295  85.5693 274.5447 15.08836229 88171,6917.892,95.438,540.653,538.861,0.0
53151.0,STARLINK-4040,PAYLOAD,2024-02-19 02:17:38,15.08839348,0.0001283,53.2174,289.1779,84.9266,275.1873,2.1998e-05,6.2e-07,0.0,0 STARLINK-4040,1 53151U 22083V   24050.09558547  .00000062  00000-0  21998-4 0  9995,2 53151  53.2174 289.1779 0001283  84.9266 275.1873 15.08839348 88829,6917.882,95.438,540.635,538.86,0.0
53151.0,STARLINK-4040,PAYLOAD,2024-02-19 08:39:11,15.08842783,0.0001371,53.2181,287.9902,81.2137,278.9011,-2.3251e-05,-6.58e-06,0.0,0 STARLINK-4040,1 53151U 22083V   24050.36054534 -.00000658  00000-0 -23251-4 0  9999,2 53151  53.2181 287.9902 0001371  81.2137 278.9011 15.08842783 88233,6917.872,95.437,540.685,538.788,0.0
53151.0,STARLINK-4040,PAYLOAD,2024-02-19 22:57:39,15.08839433,0.0001314,53.2181,285.3139,92.4618,267.6525,0.00010921,1.451e-05,0.0,0 STARLINK-4040,1 53151U 22083V   24050.95670629  .00001451  00000-0  10921-3 0  9992,2 53151  53.2181 285.3139 0001314  92.4618 267.6525 15.08839433 88325,6917.882,95.438,540.656,538.838,0.0
53151.0,STARLINK-4040,PAYLOAD,2024-02-20 08:29:58,15.08843927,0.0001197,53.2166,283.5268,82.2262,277.8866,7.1482e-05,8.5e-06,0.0,0 STARLINK-4040,1 53151U 22083V   24051.35414421  .00000850  00000-0  71482-4 0  9995,2 53151  53.2166 283.5268 0001197  82.2262 277.8866 15.08843927 89013,6917.868,95.437,540.561,538.905,0.0
53151.0,STARLINK-4040,PAYLOAD,2024-02-20 19:37:38,15.08883603,0.0001544,53.2165,281.4451,69.6839,290.4319,-0.00048135,-7.95e-05,0.0,0 STARLINK-4040,1 53151U 22083V   24051.81780818 -.00007950  00000-0 -48135-3 0  9990,2 53151  53.2165 281.4451 0001544  69.6839 290.4319 15.08883603 89084,6917.747,95.435,540.68,538.544,0.0
53151.0,STARLINK-4040,PAYLOAD,2024-02-20 22:48:26,15.08846117,0.0001289,53.2171,280.8502,80.8715,279.2423,0.00016323,2.311e-05,0.0,0 STARLINK-4040,1 53151U 22083V   24051.95030213  .00002311  00000-0  16323-3 0  9990,2 53151  53.2171 280.8502 0001289  80.8715 279.2423 15.08846117 88477,6917.862,95.437,540.618,538.835,0.0
53151.0,STARLINK-4040,PAYLOAD,2024-02-21 00:23:48,15.08850053,0.0001224,53.2165,280.5523,83.7561,276.3571,0.00016823,2.391e-05,0.0,0 STARLINK-4040,1 53151U 22083V   24052.01653903  .00002391  00000-0  16823-3 0  9998,2 53151  53.2165 280.5523 0001224  83.7561 276.3571 15.08850053 89118,6917.85,95.437,540.561,538.868,0.0
53151.0,STARLINK-4040,PAYLOAD,2024-02-21 08:20:44,15.08846929,0.0001191,53.2169,279.0675,86.719,273.3938,9.5729e-05,1.236e-05,0.0,0 STARLINK-4040,1 53151U 22083V   24052.34774151  .00001236  00000-0  95729-4 0  9993,2 53151  53.2169 279.0675 0001191  86.7190 273.3938 15.08846929 88533,6917.859,95.437,540.548,538.9,0.0
53151.0,STARLINK-4040,PAYLOAD,2024-02-21 19:28:27,15.08841544,0.0001525,53.2173,276.9836,83.5427,276.5739,6.9373e-05,8.16e-06,0.0,0 STARLINK-4040,1 53151U 22083V   24052.81142585  .00000816  00000-0  69373-4 0  9994,2 53151  53.2173 276.9836 0001525  83.5427 276.5739 15.08841544 89232,6917.876,95.437,540.796,538.686,0.0
53151.0,STARLINK-4040,PAYLOAD,2024-02-21 22:39:13,15.0884526,0.0001307,53.2164,276.3889,90.7943,269.3199,4.097e-05,3.64e-06,0.0,0 STARLINK-4040,1 53151U 22083V   24052.94390299  .00000364  00000-0  40970-4 0  9995,2 53151  53.2164 276.3889 0001307  90.7943 269.3199 15.08845260 88626,6917.864,95.437,540.633,538.825,0.0
53151.0,STARLINK-4040,PAYLOAD,2024-02-22 08:11:31,15.08846211,0.0001284,53.2163,274.6052,90.7148,269.3991,5.1814e-05,5.37e-06,0.0,0 STARLINK-4040,1 53151U 22083V   24053.34134072  .00000537  00000-0  51814-4 0  9996,2 53151  53.2163 274.6052 0001284  90.7148 269.3991 15.08846211 88682,6917.861,95.437,540.615,538.838,0.0
53151.0,STARLINK-4040,PAYLOAD,2024-02-22 20:54:36,15.0885018,0.0001239,53.216,272.2269,90.7865,269.3269,-3.6107e-06,-3.45e-06,0.0,0 STARLINK-4040,1 53151U 22083V   24053.87125810 -.00000345  00000-0 -36107-5 0  9992,2 53151  53.2160 272.2269 0001239  90.7865 269.3269 15.08850180 88766,6917.849,95.437,540.571,538.857,0.0
53151.0,STARLINK-4040,PAYLOAD,2024-02-23 14:23:51,15.08829606,0.0001374,53.2162,268.9555,97.0175,263.0973,0.00018088,2.591e-05,0.0,0 STARLINK-4040,1 53151U 22083V   24054.59990576  .00002591  00000-0  18088-3 0  9990,2 53151  53.2162 268.9555 0001374  97.0175 263.0973 15.08829606 88876,6917.912,95.438,540.728,538.827,0.0
53151.0,STARLINK-4040,PAYLOAD,2024-02-23 20:45:24,15.08828472,0.000128,53.2157,267.7671,92.4627,267.6511,0.00018863,2.715e-05,0.0,0 STARLINK-4040,1 53151U 22083V   24054.86486742  .00002715  00000-0  18863-3 0  9994,2 53151  53.2157 267.7671 0001280  92.4627 267.6511 15.08828472 89546,6917.916,95.438,540.666,538.895,0.0
53151.0,STARLINK-4040,PAYLOAD,2024-02-23 23:56:10,15.08841594,0.0001417,53.2158,267.1721,91.3953,268.7201,4.7298e-05,4.65e-06,0.0,0 STARLINK-4040,1 53151U 22083V   24054.99734107  .00000465  00000-0  47298-4 0  9994,2 53151  53.2158 267.1721 0001417  91.3953 268.7201 15.08841594 89569,6917.876,95.437,540.721,538.76,0.0
53151.0,STARLINK-4040,PAYLOAD,2024-02-24 20:36:11,15.08843752,0.0001476,53.2168,263.3062,90.5546,269.5615,1.3959e-05,-6.6e-07,0.0,0 STARLINK-4040,1 53151U 22083V   24055.85846069 -.00000066  00000-0  13959-4 0  9996,2 53151  53.2168 263.3062 0001476  90.5546 269.5615 15.08843752 89061,6917.869,95.437,540.755,538.713,0.0
53151.0,STARLINK-4040,PAYLOAD,2024-02-25 12:30:02,15.08839528,0.0001418,53.2164,260.3321,88.8226,271.2928,9.2148e-05,1.179e-05,0.0,0 STARLINK-4040,1 53151U 22083V   24056.52086138  .00001179  00000-0  92148-4 0  9996,2 53151  53.2164 260.3321 0001418  88.8226 271.2928 15.08839528 89796,6917.882,95.438,540.728,538.766,0.0
53151.0,STARLINK-4040,PAYLOAD,2024-02-25 14:05:25,15.08841356,0.0001404,53.2162,260.0348,88.7494,271.3659,0.00010755,1.424e-05,0.0,0 STARLINK-4040,1 53151U 22083V   24056.58709986  .00001424  00000-0  10755-3 0  9991,2 53151  53.2162 260.0348 0001404  88.7494 271.3659 15.08841356 89177,6917.876,95.437,540.713,538.77,0.0
53151.0,STARLINK-4040,PAYLOAD,2024-02-25 20:26:57,15.08846909,0.0001413,53.2169,258.8458,88.8048,271.3106,0.00014609,2.038e-05,0.0,0 STARLINK-4040,1 53151U 22083V   24056.85205559  .00002038  00000-0  14609-3 0  9992,2 53151  53.2169 258.8458 0001413  88.8048 271.3106 15.08846909 89218,6917.859,95.437,540.702,538.747,0.0
53151.0,STARLINK-4040,PAYLOAD,2024-02-26 12:20:49,15.08833656,0.0001019,53.2178,255.8756,94.2502,265.8606,6.8937e-05,8.09e-06,0.0,0 STARLINK-4040,1 53151U 22083V   24057.51446661  .00000809  00000-0  68937-4 0  9995,2 53151  53.2178 255.8756 0001019  94.2502 265.8606 15.08833656 89942,6917.9,95.438,540.47,539.06,0.0
53151.0,STARLINK-4040,PAYLOAD,2024-02-26 18:42:22,15.08831697,0.0001372,53.2169,254.6835,92.045,268.07,2.5216e-06,-2.48e-06,0.0,0 STARLINK-4040,1 53151U 22083V   24057.77943252 -.00000248  00000-0  25216-5 0  9993,2 53151  53.2169 254.6835 0001372  92.0450 268.0700 15.08831697 89355,6917.906,95.438,540.72,538.822,0.0
53151.0,STARLINK-4040,PAYLOAD,2024-02-27 12:11:37,15.08834106,0.000135,53.2166,251.4112,83.9254,276.1892,2.7009e-05,1.42e-06,0.0,0 STARLINK-4040,1 53151U 22083V   24058.50807454  .00000142  00000-0  27009-4 0  9991,2 53151  53.2166 251.4112 0001350  83.9254 276.1892 15.08834106 89464,6917.898,95.438,540.697,538.829,0.0
53151.0,STARLINK-4040,PAYLOAD,2024-02-27 20:08:32,15.08842303,0.0001254,53.2158,249.9235,80.9713,279.1421,3.8144e-05,3.19e-06,0.0,0 STARLINK-4040,1 53151U 22083V   24058.83926950  .00000319  00000-0  38144-4 0  9998,2 53151  53.2158 249.9235 0001254  80.9713 279.1421 15.08842303 90149,6917.873,95.437,540.606,538.871,0.0
53151.0,STARLINK-4040,PAYLOAD,2024-02-27 21:43:55,15.08844891,0.0001313,53.2164,249.6264,87.4418,272.6725,6.7807e-05,7.92e-06,0.0,0 STARLINK-4040,1 53151U 22083V   24058.90550725  .00000792  00000-0  67807-4 0  9992,2 53151  53.2164 249.6264 0001313  87.4418 272.6725 15.08844891 89524,6917.865,95.437,540.639,538.822,0.0
53151.0,STARLINK-4040,PAYLOAD,2024-02-28 12:02:24,15.08836441,0.0001373,53.2164,246.9502,80.7844,279.3303,0.00020672,3.003e-05,0.0,0 STARLINK-4040,1 53151U 22083V   24059.50167205  .00003003  00000-0  20672-3 0  9992,2 53151  53.2164 246.9502 0001373  80.7844 279.3303 15.08836441 89612,6917.891,95.438,540.706,538.806,0.0
53151.0,STARLINK-4040,PAYLOAD,2024-02-28 19:59:19,15.08844269,0.0001309,53.2151,245.4637,78.025,282.0889,0.00029613,4.429e-05,0.0,0 STARLINK-4040,1 53151U 22083V   24059.83287004  .00004429  00000-0  29613-3 0  9995,2 53151  53.2151 245.4637 0001309  78.0250 282.0889 15.08844269 89663,6917.867,95.437,540.638,538.827,0.0
53151.0,STARLINK-4040,PAYLOAD,2024-02-29 11:53:11,15.08845811,0.0001362,53.2155,242.4911,78.7809,281.3336,0.00015725,2.216e-05,0.0,0 STARLINK-4040,1 53151U 22083V   24060.49526917  .00002216  00000-0  15725-3 0  9999,2 53151  53.2155 242.4911 0001362  78.7809 281.3336 15.08845811 90390,6917.863,95.437,540.67,538.785,0.0
53151.0,STARLINK-4040,PAYLOAD,2024-02-29 18:14:42,15.08866077,0.0001173,53.2151,241.3013,80.6125,279.5,-0.00050449,-8.314e-05,0.0,0 STARLINK-4040,1 53151U 22083V   24060.76021560 -.00008314  00000-0 -50449-3 0  9992,2 53151  53.2151 241.3013 0001173  80.6125 279.5000 15.08866077 90439,6917.801,95.436,540.477,538.854,0.0
